IRIDIUM 116             
1 43072U 17083C   23323.59582409  .00000261  00000+0  86135-4 0  9995
2 43072  86.3980 355.1277 0002213  90.0295 270.1154 14.34219962309356
IRIDIUM 130             
1 43073U 17083D   23323.56410921  .00000264  00000+0  87362-4 0  9998
2 43073  86.3988 355.3248 0002216  95.7888 264.3561 14.34219949309293
IRIDIUM 151             
1 43074U 17083E   23323.81781563  .00000263  00000+0  86759-4 0  9998
2 43074  86.3980 355.0712 0002014  88.1317 272.0109 14.34216818309351
IRIDIUM 134             
1 43075U 17083F   23323.64656049  .00000280  00000+0  93041-4 0  9991
2 43075  86.3984 355.1381 0002354  94.6593 265.4871 14.34213808309295
IRIDIUM 137             
1 43076U 17083G   23323.79878756  .00000265  00000+0  87610-4 0  9997
2 43076  86.3985 355.1487 0002319  84.4799 275.6661 14.34220175309385
IRIDIUM 141             
1 43077U 17083H   23323.79244503  .00000265  00000+0  87382-4 0  9991
2 43077  86.3980 355.0351 0002012  93.5011 266.6415 14.34220035309380
IRIDIUM 153             
1 43078U 17083J   23323.53532142  .00000195  00000+0  62596-4 0  9995
2 43078  86.3944 323.5985 0001884  96.3510 263.7901 14.34217752310455
IRIDIUM 131             
1 43079U 17083K   23323.57046651  .00000262  00000+0  86534-4 0  9998
2 43079  86.3986 355.2509 0002090  94.4265 265.7169 14.34217536309289
